[
    {
        "Altitude(m)": 607911.0030729371,
        "Argument of Periapsis(deg)": 0.0,
        "Eccentricity": 0.0,
        "Inclination(deg)": 60.0,
        "Latitude(deg)": -14.292910595986921,
        "Longitude(deg)": 18.442678243600714,
        "Mean Anomaly(deg)": -163.63639999999998,
        "RAAN(deg)": 290.0,
        "Satellite Name": "Test1 1288",
        "Satellite Number": 1288,
        "Semi-Major Axis(m)": 6980739.136638005,
        "Time(s)": 0
    },
    {
        "Altitude(m)": 608060.236351507,
        "Argument of Periapsis(deg)": 0.00010418945913296404,
        "Eccentricity": 0.0,
        "Inclination(deg)": 60.0,
        "Latitude(deg)": -14.826571385736317,
        "Longitude(deg)": 18.731288837982067,
        "Mean Anomaly(deg)": -163.01629385453822,
        "RAAN(deg)": 289.99957995086027,
        "Satellite Name": "Test1 1288",
        "Satellite Number": 1288,
        "Semi-Major Axis(m)": 6980739.136638005,
        "Time(s)": 10
    }
]